0 ARIANE 2 DEB
1 27042U 89006X   13281.75096403 -.00000121  00000-0 -11977-2 0  6739
2 27042 007.7757 162.3158 7119856 339.4175 294.4172 02.25025426102252
0 ARIANE 2 DEB
1 27042U 89006X   13284.94560761 -.00000405  00000-0 -90111-2 0  6749
2 27042 007.7847 161.1310 7118058 341.7181 002.3114 02.25023467102328
0 ARIANE 2 DEB
1 27042U 89006X   13286.73122389 -.00000060  00000-0 -36593-3 0  6751
2 27042 007.7835 160.4623 7118331 343.0195 008.8487 02.25024456102365
0 ARIANE 2 DEB
1 27042U 89006X   13293.75353054 -.00000199  00000-0 -32576-2 0  6766
2 27042 007.7924 157.8749 7116318 348.0628 297.4990 02.25025294102526
